[{"OBJECT_NAME":"ONEWEB-0388","OBJECT_ID":"2021-090AM","EPOCH":"2026-03-09T17:00:35.374464","MEAN_MOTION":13.1972528,"ECCENTRICITY":0.00015507,"INCLINATION":87.9226,"RA_OF_ASC_NODE":324.7919,"ARG_OF_PERICENTER":78.5891,"MEAN_ANOMALY":281.5416,"EPHEMERIS_TYPE":0,"CLASSIFICATION_TYPE":"U","NORAD_CAT_ID":49314,"ELEMENT_SET_NO":999,"REV_AT_EPOCH":21329,"BSTAR":-0.00066582135,"MEAN_MOTION_DOT":-2.54e-6,"MEAN_MOTION_DDOT":0},{"OBJECT_NAME":"SL-14 DEB","OBJECT_ID":"1991-056L","EPOCH":"2026-03-09T20:31:07.530528","MEAN_MOTION":13.17697969,"ECCENTRICITY":0.00265082,"INCLINATION":82.5391,"RA_OF_ASC_NODE":205.444,"ARG_OF_PERICENTER":37.6548,"MEAN_ANOMALY":322.6423,"EPHEMERIS_TYPE":0,"CLASSIFICATION_TYPE":"U","NORAD_CAT_ID":45274,"ELEMENT_SET_NO":999,"REV_AT_EPOCH":29164,"BSTAR":0.0006773627,"MEAN_MOTION_DOT":2.76e-6,"MEAN_MOTION_DDOT":0}]
